[{"OBJECT_NAME":"YAOGAN-36 02B","OBJECT_ID":"2022-133B","EPOCH":"2026-03-09T22:42:31.775904","MEAN_MOTION":15.30199518,"ECCENTRICITY":0.00056841,"INCLINATION":34.9983,"RA_OF_ASC_NODE":22.5268,"ARG_OF_PERICENTER":273.0351,"MEAN_ANOMALY":86.9715,"EPHEMERIS_TYPE":0,"CLASSIFICATION_TYPE":"U","NORAD_CAT_ID":54043,"ELEMENT_SET_NO":999,"REV_AT_EPOCH":18962,"BSTAR":0.00051218814,"MEAN_MOTION_DOT":0.00015352,"MEAN_MOTION_DDOT":0},{"OBJECT_NAME":"STARLINK-34994","OBJECT_ID":"2025-225Q","EPOCH":"2026-03-09T21:37:36.822432","MEAN_MOTION":15.30202022,"ECCENTRICITY":0.00012594,"INCLINATION":53.1588,"RA_OF_ASC_NODE":164.4695,"ARG_OF_PERICENTER":79.0363,"MEAN_ANOMALY":281.078,"EPHEMERIS_TYPE":0,"CLASSIFICATION_TYPE":"U","NORAD_CAT_ID":65924,"ELEMENT_SET_NO":999,"REV_AT_EPOCH":2444,"BSTAR":0.00091783582,"MEAN_MOTION_DOT":0.00026925,"MEAN_MOTION_DDOT":0}]
